ORBCOMM-X               
1 21576U 91050C   24248.77123742  .00001446  00000+0  44757-3 0  9993
2 21576  98.3832 314.6958 0003097 347.8087  12.3028 14.42702845740956
ORBCOMM FM01            
1 23545U 95017A   24248.75188405  .00021193  00000+0  26450-2 0  9993
2 23545  69.9663  62.2603 0003214  22.2703 337.8587 14.82367724570080
ORBCOMM FM02            
1 23546U 95017B   24248.94290866  .00020649  00000+0  25948-2 0  9996
2 23546  69.9674  81.3943 0004936  21.6124 338.5233 14.82085104570056
ORBCOMM FM08            
1 25112U 97084A   24248.61317475  .00006877  00000+0  20564-2 0  9999
2 25112  45.0140 296.5812 0009256 253.9833 105.9998 14.43408974400071
ORBCOMM FM10            
1 25113U 97084B   24249.18240516  .00005487  00000+0  16539-2 0  9997
2 25113  45.0150 295.8226 0006507 236.9967 123.0258 14.43295813400312
ORBCOMM FM11            
1 25114U 97084C   24248.65836487  .00006599  00000+0  19865-2 0  9997
2 25114  45.0136 298.5048 0007265 232.6250 127.3939 14.43137513400190
ORBCOMM FM12            
1 25115U 97084D   24248.55210061  .00006702  00000+0  20190-2 0  9990
2 25115  45.0147 298.7508 0006343 234.5938 125.4321 14.43089744399975
ORBCOMM FM09            
1 25116U 97084E   24248.56635682  .00006744  00000+0  20329-2 0  9992
2 25116  45.0150 299.4050 0006890 220.0445 139.9897 14.43053459400188
